{
  "type": "FeatureCollection",
  "features": [
    {
      "type": "Feature",
      "properties": {
        "norad_id": 28054,
        "name": "DMSP 5D-3 F16 (USA 172)",
        "group": "weather",
        "lat": -54.58741910717901,
        "lon": 27.285372913504922,
        "alt_km": 846.8858621184163,
        "timestamp": "2025-12-22T20:43:45.485698+00:00",
        "meta_object_name": "DMSP 5D-3 F16 (USA 172)",
        "meta_object_id": "2003-048A",
        "meta_epoch": "2025-12-22T14:42:59.278176",
        "meta_mean_motion": 14.144276,
        "meta_eccentricity": 0.00062592,
        "meta_inclination": 99.0038,
        "meta_ra_of_asc_node": 14.1475,
        "meta_arg_of_pericenter": 289.2854,
        "meta_mean_anomaly": 180.1606,
        "meta_ephemeris_type": 0,
        "meta_classification_type": "U",
        "meta_norad_cat_id": 28054,
        "meta_element_set_no": 999,
        "meta_rev_at_epoch": 14452,
        "meta_bstar": 8.0345246e-05,
        "meta_mean_motion_dot": 1.08e-06,
        "meta_mean_motion_ddot": 0,
        "tle_line1": "1 28054U 03048A   25356.61318609  .00000108  00000+0  80345-4 0  9991",
        "tle_line2": "2 28054  99.0038  14.1475 0006259 289.2854 180.1606 14.14427600144529"
      },
      "geometry": {
        "type": "Point",
        "coordinates": [
          27.285372913504922,
          -54.58741910717901
        ]
      }
    },
    {
      "type": "Feature",
      "properties": {
        "norad_id": 28912,
        "name": "METEOSAT-9 (MSG-2)",
        "group": "weather",
        "lat": 4.793241590613919,
        "lon": 87.8935928129117,
        "alt_km": 35902.690767474174,
        "timestamp": "2025-12-22T20:43:45.485747+00:00",
        "meta_object_name": "METEOSAT-9 (MSG-2)",
        "meta_object_id": "2005-049B",
        "meta_epoch": "2025-12-21T18:33:02.923200",
        "meta_mean_motion": 1.00267778,
        "meta_eccentricity": 0.0082444,
        "meta_inclination": 8.9481,
        "meta_ra_of_asc_node": 55.8716,
        "meta_arg_of_pericenter": 282.5202,
        "meta_mean_anomaly": 75.201,
        "meta_ephemeris_type": 0,
        "meta_classification_type": "U",
        "meta_norad_cat_id": 28912,
        "meta_element_set_no": 999,
        "meta_rev_at_epoch": 7330,
        "meta_bstar": 0,
        "meta_mean_motion_dot": 1.44e-06,
        "meta_mean_motion_ddot": 0,
        "tle_line1": "1 28912U 05049B   25355.77295050  .00000144  00000+0  00000+0 0  9992",
        "tle_line2": "2 28912   8.9481  55.8716 0082444 282.5202  75.2010  1.00267778 73305"
      },
      "geometry": {
        "type": "Point",
        "coordinates": [
          87.8935928129117,
          4.793241590613919
        ]
      }
    },
    {
      "type": "Feature",
      "properties": {
        "norad_id": 29522,
        "name": "DMSP 5D-3 F17 (USA 191)",
        "group": "weather",
        "lat": -78.66628694769037,
        "lon": 131.91821983692418,
        "alt_km": 847.2487804698694,
        "timestamp": "2025-12-22T20:43:45.485764+00:00",
        "meta_object_name": "DMSP 5D-3 F17 (USA 191)",
        "meta_object_id": "2006-050A",
        "meta_epoch": "2025-12-22T12:42:10.509120",
        "meta_mean_motion": 14.14923704,
        "meta_eccentricity": 0.00098295,
        "meta_inclination": 98.7391,
        "meta_ra_of_asc_node": 1.7145,
        "meta_arg_of_pericenter": 195.4853,
        "meta_mean_anomaly": 164.6021,
        "meta_ephemeris_type": 0,
        "meta_classification_type": "U",
        "meta_norad_cat_id": 29522,
        "meta_element_set_no": 999,
        "meta_rev_at_epoch": 98743,
        "meta_bstar": 8.6966238e-05,
        "meta_mean_motion_dot": 1.25e-06,
        "meta_mean_motion_ddot": 0,
        "tle_line1": "1 29522U 06050A   25356.52928830  .00000125  00000+0  86966-4 0  9995",
        "tle_line2": "2 29522  98.7391   1.7145 0009829 195.4853 164.6021 14.14923704987436"
      },
      "geometry": {
        "type": "Point",
        "coordinates": [
          131.91821983692418,
          -78.66628694769037
        ]
      }
    },
    {
      "type": "Feature",
      "properties": {
        "norad_id": 32958,
        "name": "FENGYUN 3A",
        "group": "weather",
        "lat": 35.67005141435548,
        "lon": 122.46628158262679,
        "alt_km": 828.32988224376,
        "timestamp": "2025-12-22T20:43:45.485778+00:00",
        "meta_object_name": "FENGYUN 3A",
        "meta_object_id": "2008-026A",
        "meta_epoch": "2025-12-22T09:54:12.895200",
        "meta_mean_motion": 14.19517424,
        "meta_eccentricity": 0.00076447,
        "meta_inclination": 98.6711,
        "meta_ra_of_asc_node": 295.7362,
        "meta_arg_of_pericenter": 279.1368,
        "meta_mean_anomaly": 80.8943,
        "meta_ephemeris_type": 0,
        "meta_classification_type": "U",
        "meta_norad_cat_id": 32958,
        "meta_element_set_no": 999,
        "meta_rev_at_epoch": 91032,
        "meta_bstar": 6.1701645e-05,
        "meta_mean_motion_dot": 8.7e-07,
        "meta_mean_motion_ddot": 0,
        "tle_line1": "1 32958U 08026A   25356.41264925  .00000087  00000+0  61702-4 0  9991",
        "tle_line2": "2 32958  98.6711 295.7362 0007644 279.1368  80.8943 14.19517424910327"
      },
      "geometry": {
        "type": "Point",
        "coordinates": [
          122.46628158262679,
          35.67005141435548
        ]
      }
    },
    {
      "type": "Feature",
      "properties": {
        "norad_id": 35491,
        "name": "GOES 14",
        "group": "weather",
        "lat": -0.46822015493851254,
        "lon": -73.54477420800994,
        "alt_km": 35832.89657683114,
        "timestamp": "2025-12-22T20:43:45.485792+00:00",
        "meta_object_name": "GOES 14",
        "meta_object_id": "2009-033A",
        "meta_epoch": "2025-12-22T11:44:47.513184",
        "meta_mean_motion": 1.00096969,
        "meta_eccentricity": 5.644e-05,
        "meta_inclination": 1.2276,
        "meta_ra_of_asc_node": 85.3067,
        "meta_arg_of_pericenter": 186.425,
        "meta_mean_anomaly": 239.8566,
        "meta_ephemeris_type": 0,
        "meta_classification_type": "U",
        "meta_norad_cat_id": 35491,
        "meta_element_set_no": 999,
        "meta_rev_at_epoch": 482,
        "meta_bstar": 0,
        "meta_mean_motion_dot": 2.7e-07,
        "meta_mean_motion_ddot": 0,
        "tle_line1": "1 35491U 09033A   25356.48943881  .00000027  00000+0  00000+0 0  9990",
        "tle_line2": "2 35491   1.2276  85.3067 0000564 186.4250 239.8566  1.00096969  4825"
      },
      "geometry": {
        "type": "Point",
        "coordinates": [
          -73.54477420800994,
          -0.46822015493851254
        ]
      }
    },
    {
      "type": "Feature",
      "properties": {
        "norad_id": 35951,
        "name": "DMSP 5D-3 F18 (USA 210)",
        "group": "weather",
        "lat": 54.09962374748463,
        "lon": 165.69335475129938,
        "alt_km": 837.7450615037624,
        "timestamp": "2025-12-22T20:43:45.485804+00:00",
        "meta_object_name": "DMSP 5D-3 F18 (USA 210)",
        "meta_object_id": "2009-057A",
        "meta_epoch": "2025-12-22T13:21:10.237536",
        "meta_mean_motion": 14.14775491,
        "meta_eccentricity": 0.00117922,
        "meta_inclination": 98.8846,
        "meta_ra_of_asc_node": 332.9085,
        "meta_arg_of_pericenter": 36.8433,
        "meta_mean_anomaly": 323.3548,
        "meta_ephemeris_type": 0,
        "meta_classification_type": "U",
        "meta_norad_cat_id": 35951,
        "meta_element_set_no": 999,
        "meta_rev_at_epoch": 83461,
        "meta_bstar": 0.00016137194,
        "meta_mean_motion_dot": 2.67e-06,
        "meta_mean_motion_ddot": 0,
        "tle_line1": "1 35951U 09057A   25356.55636849  .00000267  00000+0  16137-3 0  9996",
        "tle_line2": "2 35951  98.8846 332.9085 0011792  36.8433 323.3548 14.14775491834618"
      },
      "geometry": {
        "type": "Point",
        "coordinates": [
          165.69335475129938,
          54.09962374748463
        ]
      }
    },
    {
      "type": "Feature",
      "properties": {
        "norad_id": 36411,
        "name": "EWS-G2 (GOES 15)",
        "group": "weather",
        "lat": 0.28163888138519894,
        "lon": 103.93061334860452,
        "alt_km": 35808.07813276458,
        "timestamp": "2025-12-22T20:43:45.485818+00:00",
        "meta_object_name": "EWS-G2 (GOES 15)",
        "meta_object_id": "2010-008A",
        "meta_epoch": "2025-12-22T12:14:38.401152",
        "meta_mean_motion": 1.00271074,
        "meta_eccentricity": 0.00054783,
        "meta_inclination": 0.8364,
        "meta_ra_of_asc_node": 86.0756,
        "meta_arg_of_pericenter": 178.1069,
        "meta_mean_anomaly": 72.1503,
        "meta_ephemeris_type": 0,
        "meta_classification_type": "U",
        "meta_norad_cat_id": 36411,
        "meta_element_set_no": 999,
        "meta_rev_at_epoch": 5786,
        "meta_bstar": 0,
        "meta_mean_motion_dot": 5.9e-07,
        "meta_mean_motion_ddot": 0,
        "tle_line1": "1 36411U 10008A   25356.51016668  .00000059  00000+0  00000+0 0  9990",
        "tle_line2": "2 36411   0.8364  86.0756 0005478 178.1069  72.1503  1.00271074 57862"
      },
      "geometry": {
        "type": "Point",
        "coordinates": [
          103.93061334860452,
          0.28163888138519894
        ]
      }
    }
  ]
}